NORAD_CAT_ID,OBJECT_NAME,OBJECT_TYPE,EPOCH,MEAN_MOTION,ECCENTRICITY,INCLINATION,RA_OF_ASC_NODE,ARG_OF_PERICENTER,MEAN_ANOMALY,BSTAR,MEAN_MOTION_DOT,MEAN_MOTION_DDOT,TLE_LINE0,TLE_LINE1,TLE_LINE2,SEMIMAJOR_AXIS,PERIOD,APOGEE,PERIGEE,DECAYED
53030.0,STARLINK-4160,PAYLOAD,2023-03-26 11:17:11,15.08829605,0.0001166,53.2152,248.924,60.172,299.9388,0.00030855,4.625e-05,0.0,0 STARLINK-4160,1 53030U 22076AW  23085.47027645  .00004625  00000-0  30855-3 0  9992,2 53030  53.2152 248.9240 0001166  60.1720 299.9388 15.08829605 40534,6917.912,95.438,540.584,538.971,0.0
53030.0,STARLINK-4160,PAYLOAD,2023-03-26 17:38:44,15.0885173,0.0001407,53.2159,247.7363,53.3248,306.7873,0.0014203,0.00022396,0.0,0 STARLINK-4160,1 53030U 22076AW  23085.73523781  .00022396  00000-0  14203-2 0  9996,2 53030  53.2159 247.7363 0001407  53.3248 306.7873 15.08851730 40575,6917.845,95.437,540.683,538.736,0.0
53030.0,STARLINK-4160,PAYLOAD,2023-03-27 11:07:58,15.08855636,0.0001489,53.2152,244.4645,49.2173,310.8949,0.00037998,5.767e-05,0.0,0 STARLINK-4160,1 53030U 22076AW  23086.46387063  .00005767  00000-0  37998-3 0  9998,2 53030  53.2152 244.4645 0001489  49.2173 310.8949 15.08855636 40687,6917.833,95.437,540.728,538.668,0.0
53030.0,STARLINK-4160,PAYLOAD,2023-03-27 14:18:44,15.08855048,0.0001503,53.2155,243.8704,52.4917,307.6211,0.00053031,8.165e-05,0.0,0 STARLINK-4160,1 53030U 22076AW  23086.59634888  .00008165  00000-0  53031-3 0  9993,2 53030  53.2155 243.8704 0001503  52.4917 307.6211 15.08855048 40232,6917.834,95.437,540.739,538.66,0.0
53030.0,STARLINK-4160,PAYLOAD,2023-03-27 17:29:30,15.08862525,0.000145,53.2158,243.2759,60.0051,300.1085,0.00059276,9.164e-05,0.0,0 STARLINK-4160,1 53030U 22076AW  23086.72882485  .00009164  00000-0  59276-3 0  9993,2 53030  53.2158 243.2759 0001450  60.0051 300.1085 15.08862525 40251,6917.812,95.436,540.68,538.673,0.0
53030.0,STARLINK-4160,PAYLOAD,2023-03-28 14:09:30,15.0884833,0.000145,53.2172,239.411,72.8335,287.2816,-1.8799e-05,-5.87e-06,0.0,0 STARLINK-4160,1 53030U 22076AW  23087.58994209 -.00000587  00000-0 -18799-4 0  9994,2 53030  53.2172 239.4110 0001450  72.8335 287.2816 15.08848330 40380,6917.855,95.437,540.723,538.717,0.0
53030.0,STARLINK-4160,PAYLOAD,2023-03-28 17:20:17,15.08853291,0.0001247,53.2162,238.8157,68.4402,291.6723,5.2831e-05,5.53e-06,0.0,0 STARLINK-4160,1 53030U 22076AW  23087.72241905  .00000553  00000-0  52831-4 0  9994,2 53030  53.2162 238.8157 0001247  68.4402 291.6723 15.08853291 40875,6917.84,95.437,540.567,538.842,0.0
53030.0,STARLINK-4160,PAYLOAD,2023-03-29 02:52:35,15.08848759,0.0001139,53.2153,237.031,64.3187,295.7923,-8.8873e-06,-4.29e-06,0.0,0 STARLINK-4160,1 53030U 22076AW  23088.11985870 -.00000429  00000-0 -88873-5 0  9994,2 53030  53.2153 237.0310 0001139  64.3187 295.7923 15.08848759 40467,6917.854,95.437,540.507,538.931,0.0
53030.0,STARLINK-4160,PAYLOAD,2023-03-29 17:11:03,15.08853516,0.0001379,53.2158,234.3552,60.9688,299.1442,0.0001572,2.216e-05,0.0,0 STARLINK-4160,1 53030U 22076AW  23088.71601707  .00002216  00000-0  15720-3 0  9997,2 53030  53.2158 234.3552 0001379  60.9688 299.1442 15.08853516 41028,6917.839,95.437,540.658,538.75,0.0
53030.0,STARLINK-4160,PAYLOAD,2023-03-29 21:57:11,15.08898546,0.0001989,53.2149,233.4629,41.4041,318.7102,0.0010335,0.00016225,0.0,0 STARLINK-4160,1 53030U 22076AW  23088.91471596  .00016225  00000-0  10335-2 0  9991,2 53030  53.2149 233.4629 0001989  41.4041 318.7102 15.08898546 41053,6917.701,95.434,540.942,538.191,0.0
53030.0,STARLINK-4160,PAYLOAD,2023-03-30 09:04:55,15.08822935,6.05e-05,53.2165,231.3814,66.2215,293.8841,-0.00033853,-5.669e-05,0.0,0 STARLINK-4160,1 53030U 22076AW  23089.37842086 -.00005669  00000-0 -33853-3 0  9991,2 53030  53.2165 231.3814 0000605  66.2215 293.8841 15.08822935 41126,6917.933,95.439,540.216,539.379,0.0
53030.0,STARLINK-4160,PAYLOAD,2023-03-30 15:26:28,15.08828084,0.000126,53.2144,230.1906,70.2574,289.8554,-0.00023219,-3.98e-05,0.0,0 STARLINK-4160,1 53030U 22076AW  23089.64338269 -.00003980  00000-0 -23219-3 0  9993,2 53030  53.2144 230.1906 0001260  70.2574 289.8554 15.08828084 40691,6917.917,95.438,540.653,538.91,0.0
53030.0,STARLINK-4160,PAYLOAD,2023-03-31 02:34:09,15.08830872,4.67e-05,53.2147,228.1108,270.5637,89.5301,-0.0001517,-2.7e-05,0.0,0 STARLINK-4160,1 53030U 22076AW  23090.10705726 -.00002700  00000-0 -15170-3 0  9998,2 53030  53.2147 228.1108 0000467 270.5637  89.5301 15.08830872 41232,6917.908,95.438,540.096,539.45,0.0
53030.0,STARLINK-4160,PAYLOAD,2023-03-31 13:41:52,15.08845348,0.0001508,53.2152,226.0306,71.986,288.1296,0.00023779,3.499e-05,0.0,0 STARLINK-4160,1 53030U 22076AW  23090.57074113  .00003499  00000-0  23779-3 0  9996,2 53030  53.2152 226.0306 0001508  71.9860 288.1296 15.08845348 41305,6917.864,95.437,540.772,538.686,0.0
53030.0,STARLINK-4160,PAYLOAD,2023-04-01 02:24:57,15.08837374,6.76e-05,53.2149,223.6503,90.3051,269.8019,4.3726e-05,4.08e-06,0.0,0 STARLINK-4160,1 53030U 22076AW  23091.10066051  .00000408  00000-0  43726-4 0  9990,2 53030  53.2149 223.6503 0000676  90.3051 269.8019 15.08837374 41382,6917.888,95.438,540.221,539.286,0.0
53030.0,STARLINK-4160,PAYLOAD,2023-04-01 13:32:40,15.08824178,0.0001553,53.2156,221.567,111.623,248.4928,3.8803e-05,3.29e-06,0.0,0 STARLINK-4160,1 53030U 22076AW  23091.56435375  .00000329  00000-0  38803-4 0  9991,2 53030  53.2156 221.5670 0001553 111.6230 248.4928 15.08824178 40988,6917.929,95.439,540.868,538.719,0.0
53030.0,STARLINK-4160,PAYLOAD,2023-04-01 15:08:03,15.0882481,0.0001582,53.2158,221.2699,111.5712,248.5448,4.1901e-05,3.79e-06,0.0,0 STARLINK-4160,1 53030U 22076AW  23091.63059410  .00000379  00000-0  41901-4 0  9999,2 53030  53.2158 221.2699 0001582 111.5712 248.5448 15.08824810 41469,6917.927,95.439,540.886,538.697,0.0
53030.0,STARLINK-4160,PAYLOAD,2023-04-02 08:37:17,15.08841732,0.0001194,53.2161,217.9976,128.056,232.054,0.00033536,5.054e-05,0.0,0 STARLINK-4160,1 53030U 22076AW  23092.35922979  .00005054  00000-0  33536-3 0  9997,2 53030  53.2161 217.9976 0001194 128.0560 232.0540 15.08841732 41571,6917.875,95.437,540.566,538.914,0.0
53030.0,STARLINK-4160,PAYLOAD,2023-04-02 13:23:26,15.08852769,0.0001498,53.2155,217.1079,105.7985,254.3172,0.00055704,8.591e-05,0.0,0 STARLINK-4160,1 53030U 22076AW  23092.55794867  .00008591  00000-0  55704-3 0  9992,2 53030  53.2155 217.1079 0001498 105.7985 254.3172 15.08852769 41132,6917.841,95.437,540.743,538.67,0.0
53030.0,STARLINK-4160,PAYLOAD,2023-04-02 18:09:35,15.08870352,0.0001617,53.2158,216.2124,123.0739,237.0409,0.0013109,0.00020654,0.0,0 STARLINK-4160,1 53030U 22076AW  23092.75666545  .00020654  00000-0  13109-2 0  9991,2 53030  53.2158 216.2124 0001617 123.0739 237.0409 15.08870352 41633,6917.788,95.436,540.771,538.534,0.0
53030.0,STARLINK-4160,PAYLOAD,2023-04-03 11:38:51,15.0883401,9.72e-05,53.2162,212.9442,70.7385,289.3712,0.00073746,0.00011466,0.0,0 STARLINK-4160,1 53030U 22076AW  23093.48531412  .00011466  00000-0  73746-3 0  9991,2 53030  53.2162 212.9442 0000972  70.7385 289.3712 15.08834010 41742,6917.899,95.438,540.436,539.091,0.0
53030.0,STARLINK-4160,PAYLOAD,2023-04-04 11:29:38,15.08852528,0.00014,53.2166,208.4834,80.2348,279.8802,0.00072763,0.00011315,0.0,0 STARLINK-4160,1 53030U 22076AW  23094.47891215  .00011315  00000-0  72763-3 0  9992,2 53030  53.2166 208.4834 0001400  80.2348 279.8802 15.08852528 41426,6917.842,95.437,540.676,538.739,0.0
53030.0,STARLINK-4160,PAYLOAD,2023-04-05 14:31:11,15.088453,0.0001288,53.2163,203.4279,76.9851,283.1285,0.00023364,3.433e-05,0.0,0 STARLINK-4160,1 53030U 22076AW  23095.60499212  .00003433  00000-0  23364-3 0  9994,2 53030  53.2163 203.4279 0001288  76.9851 283.1285 15.08845300 41597,6917.864,95.437,540.62,538.838,0.0
53030.0,STARLINK-4160,PAYLOAD,2023-04-06 08:00:26,15.08838473,0.0001292,53.2165,200.1572,79.7522,280.3616,3.5408e-05,2.76e-06,0.0,0 STARLINK-4160,1 53030U 22076AW  23096.33363454  .00000276  00000-0  35408-4 0  9998,2 53030  53.2165 200.1572 0001292  79.7522 280.3616 15.08838473 42175,6917.885,95.438,540.644,538.856,0.0
53030.0,STARLINK-4160,PAYLOAD,2023-04-06 11:11:12,15.08841284,0.0001334,53.2174,199.563,82.5349,277.5795,8.7716e-05,1.108e-05,0.0,0 STARLINK-4160,1 53030U 22076AW  23096.46611352  .00001108  00000-0  87716-4 0  9999,2 53030  53.2174 199.5630 0001334  82.5349 277.5795 15.08841284 41727,6917.876,95.437,540.664,538.819,0.0
53030.0,STARLINK-4160,PAYLOAD,2023-04-07 11:01:59,15.08846511,0.0001368,53.2172,195.1028,83.3365,276.7782,-4.4015e-05,-9.88e-06,0.0,0 STARLINK-4160,1 53030U 22076AW  23097.45971162 -.00000988  00000-0 -44015-4 0  9999,2 53030  53.2172 195.1028 0001368  83.3365 276.7782 15.08846511 42346,6917.86,95.437,540.672,538.779,0.0
53030.0,STARLINK-4160,PAYLOAD,2023-04-08 06:06:37,15.08841124,0.0001741,53.213,191.533,83.2825,276.8365,5.2995e-05,5.55e-06,0.0,0 STARLINK-4160,1 53030U 22076AW  23098.25459495  .00000555  00000-0  52995-4 0  9992,2 53030  53.2130 191.5330 0001741  83.2825 276.8365 15.08841124 42467,6917.877,95.437,540.946,538.538,0.0
53030.0,STARLINK-4160,PAYLOAD,2023-04-08 12:28:09,15.08841793,0.000166,53.2161,190.3445,82.9672,277.1509,6.2949e-05,7.14e-06,0.0,0 STARLINK-4160,1 53030U 22076AW  23098.51955494  .00000714  00000-0  62949-4 0  9998,2 53030  53.2161 190.3445 0001660  82.9672 277.1509 15.08841793 42030,6917.875,95.437,540.888,538.592,0.0
53030.0,STARLINK-4160,PAYLOAD,2023-04-09 10:43:33,15.08836746,0.0001562,53.2158,186.1815,82.8686,277.2484,4.2626e-05,3.9e-06,0.0,0 STARLINK-4160,1 53030U 22076AW  23099.44691956  .00000390  00000-0  42626-4 0  9991,2 53030  53.2158 186.1815 0001562  82.8686 277.2484 15.08836746 42647,6917.89,95.438,540.836,538.675,0.0
53030.0,STARLINK-4160,PAYLOAD,2023-04-09 15:29:42,15.0885442,0.0001472,53.2153,185.2877,96.5876,263.5284,-0.00017459,-3.067e-05,0.0,0 STARLINK-4160,1 53030U 22076AW  23099.64563094 -.00003067  00000-0 -17459-3 0  9995,2 53030  53.2153 185.2877 0001472  96.5876 263.5284 15.08854420 42671,6917.836,95.437,540.72,538.683,0.0
